{
    "links": {
        "self": "http://www.neowsapp.com/rest/v1/neo/3843137?api_key=iIulBulltgU6a56xZRHN4H3l9WmuAYTsLGpBGhQ2"
    },
    "id": "3843137",
    "neo_reference_id": "3843137",
    "name": "(2019 NK2)",
    "designation": "2019 NK2",
    "nasa_jpl_url": "http://ssd.jpl.nasa.gov/sbdb.cgi?sstr=3843137",
    "absolute_magnitude_h": 24.0,
    "estimated_diameter": {
        "kilometers": {
            "estimated_diameter_min": 0.0421264611,
            "estimated_diameter_max": 0.0941976306
        },
        "meters": {
            "estimated_diameter_min": 42.1264610556,
            "estimated_diameter_max": 94.1976305719
        },
        "miles": {
            "estimated_diameter_min": 0.0261761612,
            "estimated_diameter_max": 0.0585316759
        },
        "feet": {
            "estimated_diameter_min": 138.2101784897,
            "estimated_diameter_max": 309.0473542854
        }
    },
    "is_potentially_hazardous_asteroid": false,
    "close_approach_data": [
        {
            "close_approach_date": "2019-07-07",
            "close_approach_date_full": "2019-Jul-07 14:49",
            "epoch_date_close_approach": 1562510940000,
            "relative_velocity": {
                "kilometers_per_second": "14.1432401609",
                "kilometers_per_hour": "50915.6645791082",
                "miles_per_hour": "31637.0139158353"
            },
            "miss_distance": {
                "astronomical": "0.0557613902",
                "lunar": "21.6911807878",
                "kilometers": "8341785.202158874",
                "miles": "5183344.9697215012"
            },
            "orbiting_body": "Earth"
        }
    ],
    "orbital_data": {
        "orbit_id": "4",
        "orbit_determination_date": "2019-07-09 05:47:35",
        "first_observation_date": "2019-07-01",
        "last_observation_date": "2019-07-09",
        "data_arc_in_days": 8,
        "observations_used": 42,
        "orbit_uncertainty": "8",
        "minimum_orbit_intersection": ".0279454",
        "jupiter_tisserand_invariant": "4.554",
        "epoch_osculation": "2458668.5",
        "eccentricity": ".4519857095111949",
        "semi_major_axis": "1.420826408234944",
        "inclination": "17.0174399386704",
        "ascending_node_longitude": "278.1263580024008",
        "orbital_period": "618.6000598370683",
        "perihelion_distance": ".7786331760166303",
        "perihelion_argument": "82.29467643435281",
        "aphelion_distance": "2.063019640453258",
        "perihelion_time": "2458727.500271156091",
        "mean_anomaly": "325.6642490112479",
        "mean_motion": ".5819592065587895",
        "equinox": "J2000",
        "orbit_class": {
            "orbit_class_type": "APO",
            "orbit_class_description": "Near-Earth asteroid orbits which cross the Earth’s orbit similar to that of 1862 Apollo",
            "orbit_class_range": "a (semi-major axis) > 1.0 AU; q (perihelion) < 1.017 AU"
        }
    },
    "is_sentry_object": false
}